#dV2023  2 15 22  0  0.00000000    1682       CTS   FIT  GFZ
## 2249 338400.00000000    30.00000000 59990 0.9166666666667
+    1   L64  0  0  0  0  0  0  0  0  0  0  0  0  0  0  0  0
+          0  0  0  0  0  0  0  0  0  0  0  0  0  0  0  0  0
+          0  0  0  0  0  0  0  0  0  0  0  0  0  0  0  0  0
+          0  0  0  0  0  0  0  0  0  0  0  0  0  0  0  0  0
+          0  0  0  0  0  0  0  0  0  0  0  0  0  0  0  0  0
++         0  0  0  0  0  0  0  0  0  0  0  0  0  0  0  0  0
++         0  0  0  0  0  0  0  0  0  0  0  0  0  0  0  0  0
++         0  0  0  0  0  0  0  0  0  0  0  0  0  0  0  0  0
++         0  0  0  0  0  0  0  0  0  0  0  0  0  0  0  0  0
++         0  0  0  0  0  0  0  0  0  0  0  0  0  0  0  0  0
%c L  cc GPS ccc cccc cccc cccc cccc ccccc ccccc ccccc ccccc
%c cc cc ccc ccc cccc cccc cccc cccc ccccc ccccc ccccc ccccc
%f  0.0000000  0.000000000  0.00000000000  0.000000000000000
%f  0.0000000  0.000000000  0.00000000000  0.000000000000000
%i    0    0    0    0      0      0      0      0         0
%i    0    0    0    0      0      0      0      0         0
/* CCCCCCCCCCCCCCCCCCCCCCCCCCCCCCCCCCCCCCCCCCCCCCCCCCCCCCCCCCCCCCCCCCCCCCCCCCCCC
/* C                             GFZ RSO-ORBIT                                 C
/* C DOI: https://doi.org/10.5880/GFZ_ORBIT/RSO/L64_G_v02                      C
/* C                                                                           C
/* C DORIS        RMS: not applicable                                          C
/* C GNSS-E Code  RMS: not applicable                                          C
/* C GNSS-E Phase RMS: not applicable                                          C
/* C GNSS-G Code  RMS:  49.404 [cm]   Obs.acc.:     13386 Obs.eli.:      1080  C
/* C GNSS-G Phase RMS:   4.751 [mm]   Obs.acc.:     13386 Obs.eli.:      1080  C
/* C SLR          RMS:   3.166 [cm]   Obs.acc.:        32 Obs.eli.:         0  C
/* C                                                                           C
/* CCCCCCCCCCCCCCCCCCCCCCCCCCCCCCCCCCCCCCCCCCCCCCCCCCCCCCCCCCCCCCCCCCCCCCCCCCCCC
*  2023  2 16  6 30  0.00000000
PL64  -3639.215125   5820.347282   -469.566956  16663.479357
VL64    444.412440   6205.928451  75904.104000 999999.999999
*  2023  2 16  6 30 30.00000000
PL64  -3635.848002   5835.760094   -241.636914  16663.939821
VL64   1798.626023   4067.263517  76035.253798 999999.999999
*  2023  2 16  6 31  0.00000000
PL64  -3628.434402   5844.739975    -13.439531  16664.400222
VL64   3141.806659   1917.711526  76082.308895 999999.999999
*  2023  2 16  6 31 30.00000000
PL64  -3617.009729   5847.257905    214.772751  16664.861102
VL64   4472.421313   -240.298045  76045.178617 999999.999999
*  2023  2 16  6 32  0.00000000
PL64  -3601.613949   5843.292176    442.747355  16665.324751
VL64   5788.962090  -2404.318274  75923.866090 999999.999999
*  2023  2 16  6 32 30.00000000
PL64  -3582.291513   5832.828448    670.231859  16665.789135
VL64   7089.946658  -4571.885766  75718.468378 999999.999999
*  2023  2 16  6 33  0.00000000
PL64  -3559.091283   5815.859791    896.974270  16666.253260
VL64   8373.918046  -6740.522864  75429.178534 999999.999999
*  2023  2 16  6 33 30.00000000
PL64  -3532.066447   5792.386728   1122.723326  16666.715876
VL64   9639.448213  -8907.742106  75056.287619 999999.999999
*  2023  2 16  6 34  0.00000000
PL64  -3501.274432   5762.417249   1347.228779  16667.177519
VL64  10885.141004 -11071.051251  74600.182629 999999.999999
*  2023  2 16  6 34 30.00000000
PL64  -3466.776804   5725.966825   1570.241686  16667.639461
VL64  12109.632479 -13227.955734  74061.345672 999999.999999
*  2023  2 16  6 35  0.00000000
PL64  -3428.639169   5683.058412   1791.514695  16668.101206
VL64  13311.593369 -15375.962719  73440.353910 999999.999999
*  2023  2 16  6 35 30.00000000
PL64  -3386.931069   5633.722435   2010.802321  16668.561952
VL64  14489.730194 -17512.584262  72737.876384 999999.999999
*  2023  2 16  6 36  0.00000000
PL64  -3341.725871   5577.996774   2227.861226  16669.022038
VL64  15642.785430 -19635.338079  71954.674499 999999.999999
*  2023  2 16  6 36 30.00000000
PL64  -3293.100657   5515.926746   2442.450495  16669.481907
VL64  16769.541160 -21741.752360  71091.602985 999999.999999
*  2023  2 16  6 37  0.00000000
PL64  -3241.136101   5447.565057   2654.331915  16669.941581
VL64  17868.820847 -23829.370507  70149.605667 999999.999999
*  2023  2 16  6 37 30.00000000
PL64  -3185.916346   5372.971761   2863.270231  16670.401166
VL64  18939.487839 -25895.751668  69129.713169 999999.999999
*  2023  2 16  6 38  0.00000000
PL64  -3127.528884   5292.214209   3069.033415  16670.860799
VL64  19980.446517 -27938.471785  68033.044150 999999.999999
*  2023  2 16  6 38 30.00000000
PL64  -3066.064428   5205.366995   3271.392924  16671.320724
VL64  20990.645508 -29955.127262  66860.805510 999999.999999
*  2023  2 16  6 39  0.00000000
PL64  -3001.616778   5112.511889   3470.123968  16671.780911
VL64  21969.079286 -31943.339652  65614.290487 999999.999999
*  2023  2 16  6 39 30.00000000
PL64  -2934.282679   5013.737751   3665.005764  16672.241029
VL64  22914.788607 -33900.759014  64294.875861 999999.999999
*  2023  2 16  6 40  0.00000000
PL64  -2864.161685   4909.140448   3855.821780  16672.701132
VL64  23826.861106 -35825.066115  62904.019856 999999.999999
*  2023  2 16  6 40 30.00000000
PL64  -2791.356015   4798.822755   4042.359978  16673.161048
VL64  24704.431884 -37713.974715  61443.260689 999999.999999
*  2023  2 16  6 41  0.00000000
PL64  -2715.970413   4682.894250   4224.413055  16673.620820
VL64  25546.684271 -39565.234440  59914.215361 999999.999999
*  2023  2 16  6 41 30.00000000
PL64  -2638.111997   4561.471209   4401.778675  16674.080700
VL64  26352.850951 -41376.634028  58318.577566 999999.999999
*  2023  2 16  6 42  0.00000000
PL64  -2557.890113   4434.676477   4574.259694  16674.540872
VL64  27122.214354 -43146.003720  56658.115348 999999.999999
*  2023  2 16  6 42 30.00000000
PL64  -2475.416183   4302.639344   4741.664381  16675.001194
VL64  27854.107060 -44871.217915  54934.669864 999999.999999
*  2023  2 16  6 43  0.00000000
PL64  -2390.803559   4165.495405   4903.806639  16675.461777
VL64  28547.912946 -46550.198507  53150.153138 999999.999999
*  2023  2 16  6 43 30.00000000
PL64  -2304.167358   4023.386417   5060.506206  16675.922342
VL64  29203.067885 -48180.917156  51306.544812 999999.999999
*  2023  2 16  6 44  0.00000000
PL64  -2215.624316   3876.460143   5211.588859  16676.382937
VL64  29819.060174 -49761.397096  49405.889666 999999.999999
*  2023  2 16  6 44 30.00000000
PL64  -2125.292621   3724.870198   5356.886603  16676.843486
VL64  30395.430804 -51289.715498  47450.295289 999999.999999
*  2023  2 16  6 45  0.00000000
PL64  -2033.291761   3568.775880   5496.237858  16677.303642
VL64  30931.773273 -52764.006066  45441.929633 999999.999999
*  2023  2 16  6 45 30.00000000
PL64  -1939.742365   3408.341999   5629.487633  16677.763921
VL64  31427.733264 -54182.461237  43383.018194 999999.999999
*  2023  2 16  6 46  0.00000000
PL64  -1844.766048   3243.738697   5756.487700  16678.224433
VL64  31883.008356 -55543.333409  41275.842083 999999.999999
*  2023  2 16  6 46 30.00000000
PL64  -1748.485251   3075.141268   5877.096755  16678.684956
VL64  32297.349008 -56844.937749  39122.737022 999999.999999
*  2023  2 16  6 47  0.00000000
PL64  -1651.023085   2902.729959   5991.180578  16679.145538
VL64  32670.560123 -58085.656123  36926.089226 999999.999999
*  2023  2 16  6 47 30.00000000
PL64  -1552.503163   2726.689770   6098.612177  16679.606083
VL64  33002.500302 -59263.938252  34688.329800 999999.999999
*  2023  2 16  6 48  0.00000000
PL64  -1453.049446   2547.210251   6199.271917  16680.066489
VL64  33293.079301 -60378.301566  32411.931723 999999.999999
*  2023  2 16  6 48 30.00000000
PL64  -1352.786091   2364.485296   6293.047642  16680.526780
VL64  33542.256311 -61427.331444  30099.408958 999999.999999
*  2023  2 16  6 49  0.00000000
PL64  -1251.837303   2178.712943   6379.834800  16680.986848
VL64  33750.040500 -62409.682966  27753.316715 999999.999999
*  2023  2 16  6 49 30.00000000
PL64  -1150.327182   1990.095151   6459.536566  16681.447054
VL64  33916.492363 -63324.084590  25376.249353 999999.999999
*  2023  2 16  6 50  0.00000000
PL64  -1048.379571   1798.837583   6532.063949  16681.907358
VL64  34041.723971 -64169.340819  22970.836077 999999.999999
*  2023  2 16  6 50 30.00000000
PL64   -946.117897   1605.149372   6597.335895  16682.367723
VL64  34125.898717 -64944.333460  20539.736289 999999.999999
*  2023  2 16  6 51  0.00000000
PL64   -843.665024   1409.242890   6655.279365  16682.828092
VL64  34169.229962 -65648.021115  18085.635805 999999.999999
*  2023  2 16  6 51 30.00000000
PL64   -741.143100   1211.333517   6705.829420  16683.288428
VL64  34171.979642 -66279.439498  15611.246165 999999.999999
*  2023  2 16  6 52  0.00000000
PL64   -638.673418   1011.639409   6748.929288  16683.748641
VL64  34134.458271 -66837.704573  13119.302593 999999.999999
*  2023  2 16  6 52 30.00000000
PL64   -536.376265    810.381248   6784.530435 999999.999999
VL64  34057.024179 -67322.014199  10612.559486 999999.999999
*  2023  2 16  6 53  0.00000000
PL64   -434.370783    607.782002   6812.592615  16684.668680
VL64  33940.082085 -67731.648196   8093.787379 999999.999999
*  2023  2 16  6 53 30.00000000
PL64   -332.774832    404.066675   6833.083915  16685.128886
VL64  33784.082279 -68065.969082   5565.770773 999999.999999
*  2023  2 16  6 54  0.00000000
PL64   -231.704853    199.462057   6845.980791  16685.588990
VL64  33589.520191 -68324.423218   3031.305449 999999.999999
*  2023  2 16  6 54 30.00000000
PL64   -131.275734     -5.803526   6851.268102  16686.049193
VL64  33356.935756 -68506.541817    493.195235 999999.999999
*  2023  2 16  6 55  0.00000000
PL64    -31.600679   -211.500472   6848.939126  16686.509458
VL64  33086.912281 -68611.941417  -2045.751046 999999.999999
EOF
